{"fetched_at":"2026-03-29T16:36:15Z","count":15609,"tles":[{"name":"KUIPER-00262","line1":"1 67788U 26030AA  26087.79600569  .00039589  00000+0  10673-2 0  9994","line2":"2 67788  51.8811 126.6469 0001439  56.7925 303.3199 15.37422430  8037","category":"Other"}]}